{
  "type": "FeatureCollection",
  "features": [
    {
      "type": "Feature",
      "properties": {
        "norad_id": 30080,
        "name": "FENGYUN 1C DEB",
        "group": "fengyun-1c-debris",
        "lat": -80.96496356316669,
        "lon": 41.01157521370204,
        "alt_km": 947.2554332604741,
        "timestamp": "2025-12-12T03:50:52.690881+00:00",
        "meta_object_name": "FENGYUN 1C DEB",
        "meta_object_id": "1999-025QH",
        "meta_epoch": "2025-12-11T10:15:01.721664",
        "meta_mean_motion": 14.10819355,
        "meta_eccentricity": 0.0133858,
        "meta_inclination": 98.6983,
        "meta_ra_of_asc_node": 325.9897,
        "meta_arg_of_pericenter": 64.2938,
        "meta_mean_anomaly": 86.9721,
        "meta_ephemeris_type": 0,
        "meta_classification_type": "U",
        "meta_norad_cat_id": 30080,
        "meta_element_set_no": 999,
        "meta_rev_at_epoch": 97219,
        "meta_bstar": 0.00046928968,
        "meta_mean_motion_dot": 8.72e-06,
        "meta_mean_motion_ddot": 0,
        "tle_line1": "1 30080U 99025QH  25345.42710326  .00000872  00000+0  46929-3 0  9999",
        "tle_line2": "2 30080  98.6983 325.9897 0133858  64.2938  86.9721 14.10819355972197"
      },
      "geometry": {
        "type": "Point",
        "coordinates": [
          41.01157521370204,
          -80.96496356316669
        ]
      }
    },
    {
      "type": "Feature",
      "properties": {
        "norad_id": 30081,
        "name": "FENGYUN 1C DEB",
        "group": "fengyun-1c-debris",
        "lat": 43.374973331213745,
        "lon": 170.98469317728325,
        "alt_km": 946.1390643342393,
        "timestamp": "2025-12-12T03:50:52.690891+00:00",
        "meta_object_name": "FENGYUN 1C DEB",
        "meta_object_id": "1999-025QJ",
        "meta_epoch": "2025-12-11T12:18:04.705344",
        "meta_mean_motion": 13.98275181,
        "meta_eccentricity": 0.00759648,
        "meta_inclination": 98.9228,
        "meta_ra_of_asc_node": 341.8186,
        "meta_arg_of_pericenter": 342.6314,
        "meta_mean_anomaly": 133.8894,
        "meta_ephemeris_type": 0,
        "meta_classification_type": "U",
        "meta_norad_cat_id": 30081,
        "meta_element_set_no": 999,
        "meta_rev_at_epoch": 96337,
        "meta_bstar": 0.00077578374,
        "meta_mean_motion_dot": 1.091e-05,
        "meta_mean_motion_ddot": 0,
        "tle_line1": "1 30081U 99025QJ  25345.51255446  .00001091  00000+0  77578-3 0  9995",
        "tle_line2": "2 30081  98.9228 341.8186 0075964 342.6314 133.8894 13.98275181963376"
      },
      "geometry": {
        "type": "Point",
        "coordinates": [
          170.98469317728325,
          43.374973331213745
        ]
      }
    },
    {
      "type": "Feature",
      "properties": {
        "norad_id": 30082,
        "name": "FENGYUN 1C DEB",
        "group": "fengyun-1c-debris",
        "lat": 43.15596472533139,
        "lon": 102.18222265025969,
        "alt_km": 476.4035464465587,
        "timestamp": "2025-12-12T03:50:52.690900+00:00",
        "meta_object_name": "FENGYUN 1C DEB",
        "meta_object_id": "1999-025QK",
        "meta_epoch": "2025-12-11T12:58:55.810272",
        "meta_mean_motion": 15.15018305,
        "meta_eccentricity": 0.00697164,
        "meta_inclination": 98.8177,
        "meta_ra_of_asc_node": 273.0955,
        "meta_arg_of_pericenter": 170.3143,
        "meta_mean_anomaly": 189.9448,
        "meta_ephemeris_type": 0,
        "meta_classification_type": "U",
        "meta_norad_cat_id": 30082,
        "meta_element_set_no": 999,
        "meta_rev_at_epoch": 1275,
        "meta_bstar": 0.0019480428,
        "meta_mean_motion_dot": 0.00038774,
        "meta_mean_motion_ddot": 0,
        "tle_line1": "1 30082U 99025QK  25345.54092373  .00038774  00000+0  19480-2 0  9992",
        "tle_line2": "2 30082  98.8177 273.0955 0069716 170.3143 189.9448 15.15018305 12751"
      },
      "geometry": {
        "type": "Point",
        "coordinates": [
          102.18222265025969,
          43.15596472533139
        ]
      }
    },
    {
      "type": "Feature",
      "properties": {
        "norad_id": 30086,
        "name": "FENGYUN 1C DEB",
        "group": "fengyun-1c-debris",
        "lat": -80.54136394379383,
        "lon": 90.18055563142654,
        "alt_km": 920.5860433174848,
        "timestamp": "2025-12-12T03:50:52.690910+00:00",
        "meta_object_name": "FENGYUN 1C DEB",
        "meta_object_id": "1999-025QP",
        "meta_epoch": "2025-12-11T13:35:49.958016",
        "meta_mean_motion": 14.03825486,
        "meta_eccentricity": 0.00617788,
        "meta_inclination": 98.9101,
        "meta_ra_of_asc_node": 19.2728,
        "meta_arg_of_pericenter": 137.8005,
        "meta_mean_anomaly": 15.7113,
        "meta_ephemeris_type": 0,
        "meta_classification_type": "U",
        "meta_norad_cat_id": 30086,
        "meta_element_set_no": 999,
        "meta_rev_at_epoch": 96679,
        "meta_bstar": 0.00066007169,
        "meta_mean_motion_dot": 1.015e-05,
        "meta_mean_motion_ddot": 0,
        "tle_line1": "1 30086U 99025QP  25345.56655044  .00001015  00000+0  66007-3 0  9994",
        "tle_line2": "2 30086  98.9101  19.2728 0061778 137.8005  15.7113 14.03825486966795"
      },
      "geometry": {
        "type": "Point",
        "coordinates": [
          90.18055563142654,
          -80.54136394379383
        ]
      }
    },
    {
      "type": "Feature",
      "properties": {
        "norad_id": 30087,
        "name": "FENGYUN 1C DEB",
        "group": "fengyun-1c-debris",
        "lat": 66.8880869782851,
        "lon": -141.37185852941755,
        "alt_km": 604.6855336679882,
        "timestamp": "2025-12-12T03:50:52.690921+00:00",
        "meta_object_name": "FENGYUN 1C DEB",
        "meta_object_id": "1999-025QQ",
        "meta_epoch": "2025-12-11T14:40:25.512960",
        "meta_mean_motion": 14.35698754,
        "meta_eccentricity": 0.02302508,
        "meta_inclination": 98.3806,
        "meta_ra_of_asc_node": 17.8871,
        "meta_arg_of_pericenter": 124.7223,
        "meta_mean_anomaly": 31.8772,
        "meta_ephemeris_type": 0,
        "meta_classification_type": "U",
        "meta_norad_cat_id": 30087,
        "meta_element_set_no": 999,
        "meta_rev_at_epoch": 98679,
        "meta_bstar": 0.00036604505,
        "meta_mean_motion_dot": 1.381e-05,
        "meta_mean_motion_ddot": 0,
        "tle_line1": "1 30087U 99025QQ  25345.61140640  .00001381  00000+0  36605-3 0  9999",
        "tle_line2": "2 30087  98.3806  17.8871 0230250 124.7223  31.8772 14.35698754986798"
      },
      "geometry": {
        "type": "Point",
        "coordinates": [
          -141.37185852941755,
          66.8880869782851
        ]
      }
    },
    {
      "type": "Feature",
      "properties": {
        "norad_id": 30088,
        "name": "FENGYUN 1C DEB",
        "group": "fengyun-1c-debris",
        "lat": 11.307697702045276,
        "lon": -31.226323894841464,
        "alt_km": 848.0417305223309,
        "timestamp": "2025-12-12T03:50:52.690931+00:00",
        "meta_object_name": "FENGYUN 1C DEB",
        "meta_object_id": "1999-025QR",
        "meta_epoch": "2025-12-11T11:38:20.316768",
        "meta_mean_motion": 14.35906627,
        "meta_eccentricity": 0.02006993,
        "meta_inclination": 98.3543,
        "meta_ra_of_asc_node": 329.8025,
        "meta_arg_of_pericenter": 251.2518,
        "meta_mean_anomaly": 229.1576,
        "meta_ephemeris_type": 0,
        "meta_classification_type": "U",
        "meta_norad_cat_id": 30088,
        "meta_element_set_no": 999,
        "meta_rev_at_epoch": 98654,
        "meta_bstar": 0.0006610526,
        "meta_mean_motion_dot": 2.361e-05,
        "meta_mean_motion_ddot": 0,
        "tle_line1": "1 30088U 99025QR  25345.48495737  .00002361  00000+0  66105-3 0  9992",
        "tle_line2": "2 30088  98.3543 329.8025 0200699 251.2518 229.1576 14.35906627986549"
      },
      "geometry": {
        "type": "Point",
        "coordinates": [
          -31.226323894841464,
          11.307697702045276
        ]
      }
    },
    {
      "type": "Feature",
      "properties": {
        "norad_id": 30089,
        "name": "FENGYUN 1C DEB",
        "group": "fengyun-1c-debris",
        "lat": 51.80468046285657,
        "lon": -119.95142071846446,
        "alt_km": 834.8282830747539,
        "timestamp": "2025-12-12T03:50:52.690941+00:00",
        "meta_object_name": "FENGYUN 1C DEB",
        "meta_object_id": "1999-025QS",
        "meta_epoch": "2025-12-11T08:03:01.773216",
        "meta_mean_motion": 14.30302825,
        "meta_eccentricity": 0.00732451,
        "meta_inclination": 98.9031,
        "meta_ra_of_asc_node": 250.6967,
        "meta_arg_of_pericenter": 214.1301,
        "meta_mean_anomaly": 273.8833,
        "meta_ephemeris_type": 0,
        "meta_classification_type": "U",
        "meta_norad_cat_id": 30089,
        "meta_element_set_no": 999,
        "meta_rev_at_epoch": 98459,
        "meta_bstar": 0.00039207324,
        "meta_mean_motion_dot": 1.001e-05,
        "meta_mean_motion_ddot": 0,
        "tle_line1": "1 30089U 99025QS  25345.33543719  .00001001  00000+0  39207-3 0  9994",
        "tle_line2": "2 30089  98.9031 250.6967 0073245 214.1301 273.8833 14.30302825984597"
      },
      "geometry": {
        "type": "Point",
        "coordinates": [
          -119.95142071846446,
          51.80468046285657
        ]
      }
    }
  ]
}